0 METEOR 2-17 DEB
1 28990U 88005E   13280.61871698  .00000363  00000-0  28028-3 0  3088
2 28990 082.5262 041.2092 0011782 134.0458 226.1578 13.90394705402331
0 METEOR 2-17 DEB
1 28990U 88005E   13282.05797540  .00000349  00000-0  26883-3 0  3093
2 28990 082.5267 040.0514 0011840 130.5077 229.7124 13.90395522402531
0 METEOR 2-17 DEB
1 28990U 88005E   13283.06545431  .00000348  00000-0  26807-3 0  3102
2 28990 082.5269 039.2416 0011619 126.4374 233.7828 13.90396188402672
0 METEOR 2-17 DEB
1 28990U 88005E   13286.01592599  .00000392  00000-0  30379-3 0  3116
2 28990 082.5273 036.8674 0012092 121.0118 239.2434 13.90399042403081
0 METEOR 2-17 DEB
1 28990U 88005E   13287.02339827  .00000440  00000-0  34236-3 0  3122
2 28990 082.5270 036.0551 0011851 119.8134 240.4321 13.90400429403226
0 METEOR 2-17 DEB
1 28990U 88005E   13290.04581949  .00000471  00000-0  36759-3 0  3139
2 28990 082.5268 033.6226 0011803 111.3211 248.9271 13.90403465403641
0 METEOR 2-17 DEB
1 28990U 88005E   13292.99627220  .00000595  00000-0  46677-3 0  3146
2 28990 082.5271 031.2501 0012162 102.0664 258.2094 13.90408240404052
0 METEOR 2-17 DEB
1 28990U 88005E   13294.57943032  .00000624  00000-0  49072-3 0  3150
2 28990 082.5262 029.9763 0011756 095.4140 264.8321 13.90410662404279
